NORAD_CAT_ID,OBJECT_NAME,OBJECT_TYPE,EPOCH,MEAN_MOTION,ECCENTRICITY,INCLINATION,RA_OF_ASC_NODE,ARG_OF_PERICENTER,MEAN_ANOMALY,BSTAR,MEAN_MOTION_DOT,MEAN_MOTION_DDOT,TLE_LINE0,TLE_LINE1,TLE_LINE2,SEMIMAJOR_AXIS,PERIOD,APOGEE,PERIGEE,DECAYED
54203.0,STARLINK-5247,PAYLOAD,2023-12-16 11:40:47,15.08793159,0.000172,53.2188,49.033,74.8603,285.2579,0.00056268,8.667e-05,0.0,0 STARLINK-5247,1 54203U 22141AY  23350.48665524  .00008667  00000-0  56268-3 0  9994,2 54203  53.2188  49.0330 0001720  74.8603 285.2579 15.08793159 63319,6918.024,95.441,541.078,538.699,0.0
54203.0,STARLINK-5247,PAYLOAD,2023-12-16 22:48:28,15.08836406,0.0001684,53.2187,46.9508,68.2219,291.8952,4.3865e-05,4.1e-06,0.0,0 STARLINK-5247,1 54203U 22141AY  23350.95032914  .00000410  00000-0  43865-4 0  9995,2 54203  53.2187  46.9508 0001684  68.2219 291.8952 15.08836406 63388,6917.891,95.438,540.921,538.591,0.0
54203.0,STARLINK-5247,PAYLOAD,2023-12-17 11:31:33,15.08840775,0.0001472,53.2181,44.5703,72.8324,287.283,6.1726e-05,6.95e-06,0.0,0 STARLINK-5247,1 54203U 22141AY  23351.48024666  .00000695  00000-0  61726-4 0  9990,2 54203  53.2181  44.5703 0001472  72.8324 287.2830 15.08840775 63238,6917.878,95.438,540.761,538.725,0.0
54203.0,STARLINK-5247,PAYLOAD,2023-12-17 22:39:14,15.08845993,0.0001538,53.2179,42.4875,78.4664,281.6501,0.00014159,1.966e-05,0.0,0 STARLINK-5247,1 54203U 22141AY  23351.94392032  .00001966  00000-0  14159-3 0  9995,2 54203  53.2179  42.4875 0001538  78.4664 281.6501 15.08845993 63537,6917.862,95.437,540.791,538.663,0.0
54203.0,STARLINK-5247,PAYLOAD,2023-12-18 09:46:56,15.08842203,0.0001561,53.218,40.406,75.6913,284.4252,0.00031635,4.751e-05,0.0,0 STARLINK-5247,1 54203U 22141AY  23352.40759696  .00004751  00000-0  31635-3 0  9993,2 54203  53.2180  40.4060 0001561  75.6913 284.4252 15.08842203 63372,6917.874,95.437,540.819,538.659,0.0
54203.0,STARLINK-5247,PAYLOAD,2023-12-19 09:37:43,15.08839221,0.0001829,53.2187,35.9457,122.9356,237.1812,2.8144e-05,1.6e-06,0.0,0 STARLINK-5247,1 54203U 22141AY  23353.40120194  .00000160  00000-0  28144-4 0  9991,2 54203  53.2187  35.9457 0001829 122.9356 237.1812 15.08839221 63757,6917.883,95.438,541.013,538.482,0.0
54203.0,STARLINK-5247,PAYLOAD,2023-12-20 09:28:31,15.08835271,0.0001526,53.2188,31.4825,113.3131,246.8022,-0.00011743,-2.156e-05,0.0,0 STARLINK-5247,1 54203U 22141AY  23354.39481107 -.00002156  00000-0 -11743-3 0  9999,2 54203  53.2188  31.4825 0001526 113.3131 246.8022 15.08835271 63905,6917.895,95.438,540.816,538.704,0.0
54203.0,STARLINK-5247,PAYLOAD,2023-12-21 09:19:17,15.0885132,0.0001507,53.2188,27.0204,98.9452,261.1711,0.00024669,3.641e-05,0.0,0 STARLINK-5247,1 54203U 22141AY  23355.38839147  .00003641  00000-0  24669-3 0  9999,2 54203  53.2188  27.0204 0001507  98.9452 261.1711 15.08851320 64055,6917.846,95.437,540.753,538.668,0.0
54203.0,STARLINK-5247,PAYLOAD,2023-12-22 07:34:42,15.08836005,0.0001365,53.2181,22.861,107.1407,252.9735,2.0988e-05,4.6e-07,0.0,0 STARLINK-5247,1 54203U 22141AY  23356.31577213  .00000046  00000-0  20988-4 0  9993,2 54203  53.2181  22.8610 0001365 107.1407 252.9735 15.08836005 64199,6917.893,95.438,540.702,538.813,0.0
54203.0,STARLINK-5247,PAYLOAD,2023-12-23 10:36:15,15.08849112,0.0001542,53.2183,17.8017,109.1092,251.0067,-6.7767e-05,-1.367e-05,0.0,0 STARLINK-5247,1 54203U 22141AY  23357.44184929 -.00001367  00000-0 -67767-4 0  9991,2 54203  53.2183  17.8017 0001542 109.1092 251.0067 15.08849112 64365,6917.853,95.437,540.784,538.651,0.0
54203.0,STARLINK-5247,PAYLOAD,2023-12-24 00:54:44,15.08834357,0.0001524,53.2185,15.1287,106.0197,254.0963,0.0001044,1.374e-05,0.0,0 STARLINK-5247,1 54203U 22141AY  23358.03801495  .00001374  00000-0  10440-3 0  9992,2 54203  53.2185  15.1287 0001524 106.0197 254.0963 15.08834357 64452,6917.898,95.438,540.817,538.708,0.0
54203.0,STARLINK-5247,PAYLOAD,2023-12-24 08:51:39,15.08840849,0.0001614,53.2187,13.6423,99.9585,260.1589,0.0001318,1.81e-05,0.0,0 STARLINK-5247,1 54203U 22141AY  23358.36921196  .00001810  00000-0  13180-3 0  9998,2 54203  53.2187  13.6423 0001614  99.9585 260.1589 15.08840849 64275,6917.878,95.438,540.859,538.626,0.0
54203.0,STARLINK-5247,PAYLOAD,2023-12-25 08:42:26,15.08846968,0.000175,53.2193,9.1835,77.4795,282.6393,0.00010909,1.449e-05,0.0,0 STARLINK-5247,1 54203U 22141AY  23359.36281101  .00001449  00000-0  10909-3 0  9998,2 54203  53.2193   9.1835 0001750  77.4795 282.6393 15.08846968 64421,6917.859,95.437,540.935,538.513,0.0
54203.0,STARLINK-5247,PAYLOAD,2023-12-26 10:08:37,15.08844082,0.0001777,53.2196,4.418,121.2003,238.9164,-3.9961e-05,-9.24e-06,0.0,0 STARLINK-5247,1 54203U 22141AY  23360.42265527 -.00000924  00000-0 -39961-4 0  9990,2 54203  53.2196   4.4180 0001777 121.2003 238.9164 15.08844082 64812,6917.868,95.437,540.962,538.504,0.0
54203.0,STARLINK-5247,PAYLOAD,2023-12-27 09:59:23,15.08853866,0.0001707,53.2188,359.9582,103.9784,256.1398,7.3169e-05,8.77e-06,0.0,0 STARLINK-5247,1 54203U 22141AY  23361.41624623  .00000877  00000-0  73169-4 0  9999,2 54203  53.2188 359.9582 0001707 103.9784 256.1398 15.08853866 64960,6917.838,95.437,540.884,538.522,0.0
54203.0,STARLINK-5247,PAYLOAD,2023-12-28 03:28:38,15.08841612,0.0001829,53.218,356.6857,113.7301,246.3883,9.5938e-05,1.239e-05,0.0,0 STARLINK-5247,1 54203U 22141AY  23362.14489367  .00001239  00000-0  95938-4 0  9995,2 54203  53.2180 356.6857 0001829 113.7301 246.3883 15.08841612 65079,6917.875,95.437,541.006,538.475,0.0
54203.0,STARLINK-5247,PAYLOAD,2023-12-28 06:39:25,15.08843144,0.000158,53.2193,356.0964,99.6202,260.4969,6.3774e-05,7.27e-06,0.0,0 STARLINK-5247,1 54203U 22141AY  23362.27737527  .00000727  00000-0  63774-4 0  9997,2 54203  53.2193 356.0964 0001580  99.6202 260.4969 15.08843144 64862,6917.871,95.437,540.829,538.643,0.0
54203.0,STARLINK-5247,PAYLOAD,2023-12-29 03:19:26,15.08840689,0.0001597,53.2185,352.2273,99.5989,260.5184,-3.4061e-05,-8.3e-06,0.0,0 STARLINK-5247,1 54203U 22141AY  23363.13850011 -.00000830  00000-0 -34061-4 0  9991,2 54203  53.2185 352.2273 0001597  99.5989 260.5184 15.08840689 65225,6917.878,95.438,540.848,538.638,0.0
54203.0,STARLINK-5247,PAYLOAD,2023-12-29 06:30:12,15.08843031,0.0001591,53.2186,351.6319,106.0317,254.0851,-4.6383e-05,-1.026e-05,0.0,0 STARLINK-5247,1 54203U 22141AY  23363.27097879 -.00001026  00000-0 -46383-4 0  9999,2 54203  53.2186 351.6319 0001591 106.0317 254.0851 15.08843031 65013,6917.871,95.437,540.837,538.635,0.0
54203.0,STARLINK-5247,PAYLOAD,2023-12-30 09:31:46,15.088386,0.0001622,53.219,346.5799,103.5971,256.5202,5.5231e-05,5.91e-06,0.0,0 STARLINK-5247,1 54203U 22141AY  23364.39706158  .00000591  00000-0  55231-4 0  9996,2 54203  53.2190 346.5799 0001622 103.5971 256.5202 15.08838600 65413,6917.885,95.438,540.872,538.628,0.0
54203.0,STARLINK-5247,PAYLOAD,2023-12-31 07:47:10,15.0883935,0.0001541,53.2188,342.4144,93.5216,266.5952,7.5812e-05,9.19e-06,0.0,0 STARLINK-5247,1 54203U 22141AY  23365.32442394  .00000919  00000-0  75812-4 0  9990,2 54203  53.2188 342.4144 0001541  93.5216 266.5952 15.08839350 65325,6917.882,95.438,540.813,538.681,0.0
54203.0,STARLINK-5247,PAYLOAD,2024-01-01 02:51:48,15.08838406,0.0001561,53.2189,338.8463,89.4867,270.6304,6.2779e-05,7.11e-06,0.0,0 STARLINK-5247,1 54203U 22141AY  24001.11930615  .00000711  00000-0  62779-4 0  9991,2 54203  53.2189 338.8463 0001561  89.4867 270.6304 15.08838406 65673,6917.885,95.438,540.83,538.67,0.0
54203.0,STARLINK-5247,PAYLOAD,2024-01-01 07:37:57,15.08843148,0.0001562,53.219,337.9545,84.3979,275.7191,9.5942e-05,1.239e-05,0.0,0 STARLINK-5247,1 54203U 22141AY  24001.31802301  .00001239  00000-0  95942-4 0  9997,2 54203  53.2190 337.9545 0001562  84.3979 275.7191 15.08843148 65472,6917.871,95.437,540.816,538.655,0.0
54203.0,STARLINK-5247,PAYLOAD,2024-01-02 04:17:57,15.08848395,0.0001621,53.2191,334.0893,80.6175,279.5,7.3456e-05,8.81e-06,0.0,0 STARLINK-5247,1 54203U 22141AY  24002.17913981  .00000881  00000-0  73456-4 0  9997,2 54203  53.2191 334.0893 0001621  80.6175 279.5000 15.08848395 65830,6917.855,95.437,540.841,538.598,0.0
54203.0,STARLINK-5247,PAYLOAD,2024-01-02 21:47:12,15.08846858,0.0001586,53.2176,330.8219,79.1205,280.9966,2.113e-05,4.8e-07,0.0,0 STARLINK-5247,1 54203U 22141AY  24002.90778131  .00000048  00000-0  21130-4 0  9991,2 54203  53.2176 330.8219 0001586  79.1205 280.9966 15.08846858 65712,6917.859,95.437,540.822,538.627,0.0
54203.0,STARLINK-5247,PAYLOAD,2024-01-03 02:33:21,15.08845448,0.0001536,53.2179,329.9282,81.6135,278.5031,-8.9652e-07,-3.02e-06,0.0,0 STARLINK-5247,1 54203U 22141AY  24003.10650187 -.00000302  00000-0 -89652-6 0  9994,2 54203  53.2179 329.9282 0001536  81.6135 278.5031 15.08845448 65977,6917.864,95.437,540.791,538.666,0.0
54203.0,STARLINK-5247,PAYLOAD,2024-01-04 03:59:32,15.08845286,0.0001562,53.2194,325.1718,105.5379,254.5785,-8.773e-05,-1.684e-05,0.0,0 STARLINK-5247,1 54203U 22141AY  24004.16634367 -.00001684  00000-0 -87730-4 0  9990,2 54203  53.2194 325.1718 0001562 105.5379 254.5785 15.08845286 66130,6917.864,95.437,540.81,538.649,0.0
54203.0,STARLINK-5247,PAYLOAD,2024-01-04 07:10:18,15.08850812,0.0001523,53.2187,324.5754,99.0713,261.0451,-0.00012813,-2.327e-05,0.0,0 STARLINK-5247,1 54203U 22141AY  24004.29882112 -.00002327  00000-0 -12813-3 0  9991,2 54203  53.2187 324.5754 0001523  99.0713 261.0451 15.08850812 65921,6917.847,95.437,540.766,538.659,0.0
54203.0,STARLINK-5247,PAYLOAD,2024-01-04 16:42:37,15.08837437,0.000138,53.2181,322.7922,89.4413,270.6737,5.0341e-05,5.13e-06,0.0,0 STARLINK-5247,1 54203U 22141AY  24004.69626349  .00000513  00000-0  50341-4 0  9995,2 54203  53.2181 322.7922 0001380  89.4413 270.6737 15.08837437 65980,6917.888,95.438,540.708,538.799,0.0
54203.0,STARLINK-5247,PAYLOAD,2024-01-05 07:01:04,15.0884349,0.0001375,53.2182,320.1147,99.9154,260.1993,8.3129e-05,1.035e-05,0.0,0 STARLINK-5247,1 54203U 22141AY  24005.29241871  .00001035  00000-0  83129-4 0  9995,2 54203  53.2182 320.1147 0001375  99.9154 260.1993 15.08843490 66305,6917.87,95.437,540.686,538.784,0.0
